MAKERSAT 0              
1 43016U 17073D   26036.72273455  .00037894  00000+0  11805-2 0  9991
2 43016  97.4833 278.6217 0121836  19.4953 341.0885 15.26116650446371
SIRION PATHFINDER-2     
1 43759U 18099B   26036.71496262  .00008810  00000+0  50003-3 0  9996
2 43759  97.4451  88.8929 0009959  43.0694 317.1315 15.13133705392736
CORVUS BC4              
1 43767U 18099K   26036.74867600  .00009104  00000+0  54408-3 0  9996
2 43767  97.4261  83.5530 0010015  94.6456 265.5918 15.11255711392541
SPACEBEE-7              
1 43816U 18099BL  26036.66317179  .00372446  00000+0  21644-2 0  9990
2 43816  97.4574 120.6806 0004744 290.3112  69.7644 15.77463741394120
SHIELDS 1               
1 43850U 18104B   26036.97803110  .00931427  57737-3  64544-3 0  9994
2 43850  84.9931 222.6665 0003697 279.3416  80.7459 16.16631399399461
M2 PATHFINDER           
1 45727U 20037E   26036.94535551  .00005731  00000+0  41942-3 0  9999
2 45727  97.8135 226.7258 0011050 234.8974 125.1216 15.03943687305761
NETSAT-4                
1 46504U 20068U   26036.94044695  .00026641  00000+0  68913-3 0  9991
2 46504  97.8631  35.1045 0008427  75.8694 284.3486 15.39034390295551
NETSAT-3                
1 46505U 20068V   26036.96796628  .00026399  00000+0  71405-3 0  9994
2 46505  97.8658  33.5477 0008361  88.0158 272.2043 15.37659603295485
NETSAT-1                
1 46506U 20068W   26036.93050954  .00022143  00000+0  74110-3 0  9996
2 46506  97.8721  29.2688 0007971 102.2669 257.9464 15.30954346295195
NETSAT-2                
1 46507U 20068X   26036.98038100  .00031190  00000+0  78233-3 0  9993
2 46507  97.8642  34.6924 0007127  97.0076 263.1980 15.39954248295504
WILDTRACKCUBE-SIMBA     
1 47941U 21022K   26036.82214838  .00355522  00000+0  14163-2 0  9993
2 47941  97.3994 316.0845 0008645 116.6269 243.5888 15.85699147270753
GREENCUBE (IO-117)      
1 53109U 22080E   26036.82714451 -.00000003  00000+0  00000+0 0  9991
2 53109  70.1644 343.9250 0009171 317.3784  42.6164  6.42583143 83627
SITRO-AIS 5 (KATYS)     
1 57176U 23091L   26036.95510204  .00021809  00000+0  84371-3 0  9999
2 57176  97.5245  99.8031 0011789 199.8353 160.2429 15.26159815144303
SITRO-AIS 6 (CHIRKIN)   
1 57192U 23091AC  26036.80676212  .00014664  00000+0  60816-3 0  9992
2 57192  97.5248  99.3675 0011972 199.4003 160.6779 15.23913281144264
SITRO-AIS 8 (ANOKHIN)   
1 57193U 23091AD  26036.98303249  .00029925  00000+0  10833-2 0  9998
2 57193  97.5237 100.9434 0011115 196.7284 163.3590 15.28297369144386
SITRO-AIS 7 (FARTUSHNIY)
1 57194U 23091AE  26036.98349646  .00012031  00000+0  50291-3 0  9993
2 57194  97.5248  99.4272 0011734 200.0364 160.0414 15.23697465144280
SITRO-AIS 10 (BURDAEV)  
1 57199U 23091AK  26036.85497787  .00032959  00000+0  10211-2 0  9992
2 57199  97.5251 104.6695 0007758 173.0434 187.0917 15.33348881144604
SITRO-AIS 9 (SHCHUKIN)  
1 57201U 23091AM  26036.91100804  .00038248  00000+0  11965-2 0  9998
2 57201  97.5251 104.5440 0007800 173.8587 186.2752 15.33004991144609
SITRO-AIS 12 (SMIRENNIY)
1 57204U 23091AQ  26036.85915337  .00039342  00000+0  12212-2 0  9991
2 57204  97.5260 104.8833 0007749 167.3453 192.7985 15.33246476144610
SITRO-AIS 11 (SHEFFER)  
1 57208U 23091AU  26036.96958750  .00035862  00000+0  11029-2 0  9991
2 57208  97.5257 105.1709 0007688 166.5768 193.5680 15.33564608144642
SITRO-AIS 25            
1 59066U 24039R   26036.94065203  .00008921  00000+0  70432-3 0  9998
2 59066  95.3951 144.9533 0149418  66.9947 294.6959 14.92338825105147
SITRO-AIS 26            
1 59067U 24039S   26036.92512608  .00008772  00000+0  69523-3 0  9996
2 59067  95.3956 144.8655 0149845  67.5140 294.1872 14.92158381105138
SITRO-AIS 27            
1 59068U 24039T   26036.93080942  .00009037  00000+0  71043-3 0  9994
2 59068  95.3955 145.0832 0148921  66.3937 295.2845 14.92546199105155
SITRO-AIS 28            
1 59071U 24039U   26036.97832461  .00009935  00000+0  78014-3 0  9995
2 59071  95.3955 145.1558 0148841  66.1245 295.5495 14.92581245105162
GRBBETA                 
1 60237U 24128C   26036.96100015  .00007493  00000+0  51719-3 0  9992
2 60237  61.9915 316.2811 0053936 107.7013 252.9978 15.05418205 86500
OOV-CUBE (TUBSAT-30)    
1 60240U 24128F   26036.94331183  .00004466  00000+0  34317-3 0  9998
2 60240  61.9969 322.9767 0056653 105.7361 254.9988 15.02020243 86398
ROBUSTA-3A (MEDITERRAN*)
1 60243U 24128J   26036.93936662  .00015627  00000+0  94989-3 0  9995
2 60243  61.9881 311.6333 0054340 101.9687 258.7506 15.09436175 86590
LASARSAT                
1 62391U 24247Q   26036.68676005  .00044703  00000+0  11712-2 0  9996
2 62391  44.9760 276.6095 0002388 214.0199 146.0535 15.38045753 63010
CROCUBE                 
1 62394U 24247T   26036.67327425  .00048633  00000+0  12343-2 0  9994
2 62394  44.9735 275.5923 0002196 189.1855 170.8993 15.38988797 63029
